OBJECT_NAME,OBJECT_ID,EPOCH,MEAN_MOTION,ECCENTRICITY,INCLINATION,RA_OF_ASC_NODE,ARG_OF_PERICENTER,MEAN_ANOMALY,EPHEMERIS_TYPE,CLASSIFICATION_TYPE,NORAD_CAT_ID,ELEMENT_SET_NO,REV_AT_EPOCH,BSTAR,MEAN_MOTION_DOT,MEAN_MOTION_DDOT
LEMUR-2-FINNIAN,2025-276DX,2026-07-05T18:04:14.786688,15.00540875,.00082842,97.5345,257.1647,32.7204,327.4532,0,U,66782,999,2278,.31192771E-3,.3879E-4,0
LEMUR-2-STARLIGHT,2025-276DY,2026-07-06T04:37:33.812544,14.99280589,.00146803,97.5223,257.1818,73.3562,286.9272,0,U,66783,999,3304,.59904999E-3,.7274E-4,0
LEMUR-2-TARTIFLETTE,2025-276DZ,2026-07-06T04:35:09.096864,14.99273385,.00137039,97.5224,257.1880,81.1242,279.1533,0,U,66784,999,3304,.48588365E-3,.5885E-4,0
LEMUR-2-VUKASIN,2025-276EA,2026-07-05T04:02:30.922944,15.00457120,.0004613,97.5256,256.5396,82.2970,277.8778,0,U,66785,999,3284,.21869E-3,.2695E-4,0
LEMUR-2-HOTSPUR-TOM,2025-276EB,2026-07-06T04:26:16.401120,14.99179411,.00139873,97.5216,257.1593,72.3986,287.8764,0,U,66786,999,3297,.51888665E-3,.6274E-4,0
LEMUR-2-MYRA,2025-276EC,2026-07-06T03:13:09.842016,15.00519047,.00184328,97.5207,257.3957,81.7477,278.5837,0,U,66787,999,3305,.54343281E-3,.6819E-4,0
LEMUR-2 FIKRETDENGIZ,2026-004A,2026-07-05T22:59:45.998592,14.88472307,.00105673,97.8024,185.2292,81.5698,278.6716,0,U,67363,999,2607,.53036621E-3,.4876E-4,0
TWILIGHT-1 OBJECT B,2026-004B,2026-07-05T18:56:21.138720,14.87772404,.00101878,97.8065,185.0689,72.7987,287.4344,0,U,67364,999,2605,.28825626E-3,.2579E-4,0
LEMUR-2-MARIO-SOUSA,2026-004C,2026-07-06T00:09:24.792480,14.88676989,.00102002,97.7997,185.2721,82.5124,277.7252,0,U,67365,999,2609,.61621474E-3,.5703E-4,0
LEMUR-2-SONNENBLUME,2026-004E,2026-07-05T22:34:21.754848,14.88421442,.00097359,97.7992,185.1841,83.8905,276.3421,0,U,67367,999,2608,.43590536E-3,.3992E-4,0
LEMUR-2-WOBLER,2026-004F,2026-07-05T23:57:52.020864,14.88654041,.00099172,97.8043,185.3822,75.1148,285.1167,0,U,67368,999,2609,.50618479E-3,.4672E-4,0
LEMUR-2-GRAM-E-SUE,2026-004H,2026-07-05T23:45:37.855872,14.88561015,.00088575,97.7977,185.2490,85.7710,274.4519,0,U,67370,999,2609,.32255271E-3,.2949E-4,0
LEMUR-2-KATIE,2026-004AA,2026-07-05T22:58:18.677568,14.90196965,.00042766,97.8044,185.7372,55.0547,305.1072,0,U,67387,999,2610,.63953221E-3,.6145E-4,0
LEMUR-2-HCS-BAZUS,2026-004AB,2026-07-05T22:56:08.083968,14.90229624,.00036729,97.8031,185.7152,54.0963,306.0595,0,U,67388,999,2610,.34979759E-3,.3338E-4,0
